CCSDS_OMM_VERS = 2.0
CREATION_DATE  = 
ORIGINATOR     = 

OBJECT_NAME    = ATLAS CENTAUR R/B
OBJECT_ID      = 1972-065B
CENTER_NAME    = EARTH
REF_FRAME      = TEME
TIME_SYSTEM    = UTC
MEAN_ELEMENT_THEORY = SGP/SGP4

EPOCH          = 2026-03-10T16:58:04.757664
MEAN_MOTION    = 14.77689947
ECCENTRICITY   = .0033416
INCLINATION    = 35.0016
RA_OF_ASC_NODE = 299.7926
ARG_OF_PERICENTER = 17.4108
MEAN_ANOMALY   = 342.7732

EPHEMERIS_TYPE = 0
CLASSIFICATION_TYPE = U
NORAD_CAT_ID   = 6155
ELEMENT_SET_NO = 999
REV_AT_EPOCH   = 84141
BSTAR          = .21265E-3
MEAN_MOTION_DOT = .1538E-4
MEAN_MOTION_DDOT = 0

CCSDS_OMM_VERS = 2.0
CREATION_DATE  = 
ORIGINATOR     = 

OBJECT_NAME    = SL-8 R/B
OBJECT_ID      = 1975-112B
CENTER_NAME    = EARTH
REF_FRAME      = TEME
TIME_SYSTEM    = UTC
MEAN_ELEMENT_THEORY = SGP/SGP4

EPOCH          = 2026-03-10T19:47:34.987200
MEAN_MOTION    = 14.38204508
ECCENTRICITY   = .0014414
INCLINATION    = 74.0630
RA_OF_ASC_NODE = 16.8239
ARG_OF_PERICENTER = 109.6444
MEAN_ANOMALY   = 250.6267

EPHEMERIS_TYPE = 0
CLASSIFICATION_TYPE = U
NORAD_CAT_ID   = 8459
ELEMENT_SET_NO = 999
REV_AT_EPOCH   = 63203
BSTAR          = .11335E-3
MEAN_MOTION_DOT = .319E-5
MEAN_MOTION_DDOT = 0

CCSDS_OMM_VERS = 2.0
CREATION_DATE  = 
ORIGINATOR     = 

OBJECT_NAME    = SL-3 R/B
OBJECT_ID      = 1977-057B
CENTER_NAME    = EARTH
REF_FRAME      = TEME
TIME_SYSTEM    = UTC
MEAN_ELEMENT_THEORY = SGP/SGP4

EPOCH          = 2026-03-10T19:40:19.063776
MEAN_MOTION    = 15.45530140
ECCENTRICITY   = .000618
INCLINATION    = 97.5778
RA_OF_ASC_NODE = 241.7899
ARG_OF_PERICENTER = 280.5264
MEAN_ANOMALY   = 79.5288

EPHEMERIS_TYPE = 0
CLASSIFICATION_TYPE = U
NORAD_CAT_ID   = 10114
ELEMENT_SET_NO = 999
REV_AT_EPOCH   = 66850
BSTAR          = .33319E-3
MEAN_MOTION_DOT = .15923E-3
MEAN_MOTION_DDOT = 0

CCSDS_OMM_VERS = 2.0
CREATION_DATE  = 
ORIGINATOR     = 

OBJECT_NAME    = SEASAT 1
OBJECT_ID      = 1978-064A
CENTER_NAME    = EARTH
REF_FRAME      = TEME
TIME_SYSTEM    = UTC
MEAN_ELEMENT_THEORY = SGP/SGP4

EPOCH          = 2026-03-10T19:26:57.510240
MEAN_MOTION    = 14.46161358
ECCENTRICITY   = .0002326
INCLINATION    = 108.0106
RA_OF_ASC_NODE = 127.8515
ARG_OF_PERICENTER = 285.4764
MEAN_ANOMALY   = 74.6124

EPHEMERIS_TYPE = 0
CLASSIFICATION_TYPE = U
NORAD_CAT_ID   = 10967
ELEMENT_SET_NO = 999
REV_AT_EPOCH   = 50667
BSTAR          = .12378E-3
MEAN_MOTION_DOT = .305E-5
MEAN_MOTION_DDOT = 0

CCSDS_OMM_VERS = 2.0
CREATION_DATE  = 
ORIGINATOR     = 

OBJECT_NAME    = SL-14 R/B
OBJECT_ID      = 1979-011B
CENTER_NAME    = EARTH
REF_FRAME      = TEME
TIME_SYSTEM    = UTC
MEAN_ELEMENT_THEORY = SGP/SGP4

EPOCH          = 2026-03-10T14:04:36.628320
MEAN_MOTION    = 14.91909316
ECCENTRICITY   = .0017365
INCLINATION    = 82.5208
RA_OF_ASC_NODE = 95.7197
ARG_OF_PERICENTER = 57.7831
MEAN_ANOMALY   = 302.5069

EPHEMERIS_TYPE = 0
CLASSIFICATION_TYPE = U
NORAD_CAT_ID   = 11267
ELEMENT_SET_NO = 999
REV_AT_EPOCH   = 52891
BSTAR          = .66205E-4
MEAN_MOTION_DOT = .697E-5
MEAN_MOTION_DDOT = 0

CCSDS_OMM_VERS = 2.0
CREATION_DATE  = 
ORIGINATOR     = 

OBJECT_NAME    = SL-8 R/B
OBJECT_ID      = 1979-089B
CENTER_NAME    = EARTH
REF_FRAME      = TEME
TIME_SYSTEM    = UTC
MEAN_ELEMENT_THEORY = SGP/SGP4

EPOCH          = 2026-03-10T12:12:10.950912
MEAN_MOTION    = 14.42351404
ECCENTRICITY   = .0017162
INCLINATION    = 74.0667
RA_OF_ASC_NODE = 89.5278
ARG_OF_PERICENTER = 262.1209
MEAN_ANOMALY   = 97.7999

EPHEMERIS_TYPE = 0
CLASSIFICATION_TYPE = U
NORAD_CAT_ID   = 11574
ELEMENT_SET_NO = 999
REV_AT_EPOCH   = 43622
BSTAR          = .11157E-3
MEAN_MOTION_DOT = .343E-5
MEAN_MOTION_DDOT = 0

CCSDS_OMM_VERS = 2.0
CREATION_DATE  = 
ORIGINATOR     = 

OBJECT_NAME    = SL-14 R/B
OBJECT_ID      = 1980-005B
CENTER_NAME    = EARTH
REF_FRAME      = TEME
TIME_SYSTEM    = UTC
MEAN_ELEMENT_THEORY = SGP/SGP4

EPOCH          = 2026-03-10T17:37:30.061344
MEAN_MOTION    = 14.90931778
ECCENTRICITY   = .0016272
INCLINATION    = 82.5142
RA_OF_ASC_NODE = 306.2455
ARG_OF_PERICENTER = 154.9385
MEAN_ANOMALY   = 205.2628

EPHEMERIS_TYPE = 0
CLASSIFICATION_TYPE = U
NORAD_CAT_ID   = 11672
ELEMENT_SET_NO = 999
REV_AT_EPOCH   = 47664
BSTAR          = .63589E-4
MEAN_MOTION_DOT = .654E-5
MEAN_MOTION_DDOT = 0

CCSDS_OMM_VERS = 2.0
CREATION_DATE  = 
ORIGINATOR     = 

OBJECT_NAME    = SL-8 R/B
OBJECT_ID      = 1981-003B
CENTER_NAME    = EARTH
REF_FRAME      = TEME
TIME_SYSTEM    = UTC
MEAN_ELEMENT_THEORY = SGP/SGP4

EPOCH          = 2026-03-10T14:19:22.661184
MEAN_MOTION    = 15.11013948
ECCENTRICITY   = .0262165
INCLINATION    = 82.9387
RA_OF_ASC_NODE = 289.1850
ARG_OF_PERICENTER = 175.4930
MEAN_ANOMALY   = 184.8760

EPHEMERIS_TYPE = 0
CLASSIFICATION_TYPE = U
NORAD_CAT_ID   = 12139
ELEMENT_SET_NO = 999
REV_AT_EPOCH   = 31481
BSTAR          = .55974E-3
MEAN_MOTION_DOT = .2186E-3
MEAN_MOTION_DDOT = 0

CCSDS_OMM_VERS = 2.0
CREATION_DATE  = 
ORIGINATOR     = 

OBJECT_NAME    = SL-3 R/B
OBJECT_ID      = 1981-046B
CENTER_NAME    = EARTH
REF_FRAME      = TEME
TIME_SYSTEM    = UTC
MEAN_ELEMENT_THEORY = SGP/SGP4

EPOCH          = 2026-03-10T19:44:42.776448
MEAN_MOTION    = 15.42029677
ECCENTRICITY   = .0019439
INCLINATION    = 81.2299
RA_OF_ASC_NODE = 288.3835
ARG_OF_PERICENTER = 18.4665
MEAN_ANOMALY   = 341.7278

EPHEMERIS_TYPE = 0
CLASSIFICATION_TYPE = U
NORAD_CAT_ID   = 12465
ELEMENT_SET_NO = 999
REV_AT_EPOCH   = 43860
BSTAR          = .34764E-3
MEAN_MOTION_DOT = .1497E-3
MEAN_MOTION_DDOT = 0

CCSDS_OMM_VERS = 2.0
CREATION_DATE  = 
ORIGINATOR     = 

OBJECT_NAME    = SL-3 R/B
OBJECT_ID      = 1981-103B
CENTER_NAME    = EARTH
REF_FRAME      = TEME
TIME_SYSTEM    = UTC
MEAN_ELEMENT_THEORY = SGP/SGP4

EPOCH          = 2026-03-10T19:47:26.697120
MEAN_MOTION    = 15.21391815
ECCENTRICITY   = .0012351
INCLINATION    = 81.1585
RA_OF_ASC_NODE = 212.1006
ARG_OF_PERICENTER = 282.7697
MEAN_ANOMALY   = 77.2154

EPHEMERIS_TYPE = 0
CLASSIFICATION_TYPE = U
NORAD_CAT_ID   = 12904
ELEMENT_SET_NO = 999
REV_AT_EPOCH   = 97340
BSTAR          = .28261E-3
MEAN_MOTION_DOT = .6375E-4
MEAN_MOTION_DDOT = 0

CCSDS_OMM_VERS = 2.0
CREATION_DATE  = 
ORIGINATOR     = 

OBJECT_NAME    = SL-3 R/B
OBJECT_ID      = 1982-013B
CENTER_NAME    = EARTH
REF_FRAME      = TEME
TIME_SYSTEM    = UTC
MEAN_ELEMENT_THEORY = SGP/SGP4

EPOCH          = 2026-03-10T19:58:22.967328
MEAN_MOTION    = 15.22031571
ECCENTRICITY   = .002268
INCLINATION    = 81.1761
RA_OF_ASC_NODE = 159.4319
ARG_OF_PERICENTER = 173.7105
MEAN_ANOMALY   = 186.4416

EPHEMERIS_TYPE = 0
CLASSIFICATION_TYPE = U
NORAD_CAT_ID   = 13068
ELEMENT_SET_NO = 999
REV_AT_EPOCH   = 40452
BSTAR          = .21172E-3
MEAN_MOTION_DOT = .4897E-4
MEAN_MOTION_DDOT = 0

CCSDS_OMM_VERS = 2.0
CREATION_DATE  = 
ORIGINATOR     = 

OBJECT_NAME    = SL-3 R/B
OBJECT_ID      = 1982-039B
CENTER_NAME    = EARTH
REF_FRAME      = TEME
TIME_SYSTEM    = UTC
MEAN_ELEMENT_THEORY = SGP/SGP4

EPOCH          = 2026-03-10T20:23:18.719808
MEAN_MOTION    = 15.10089653
ECCENTRICITY   = .0029674
INCLINATION    = 81.1582
RA_OF_ASC_NODE = 214.6246
ARG_OF_PERICENTER = 320.6886
MEAN_ANOMALY   = 39.2184

EPHEMERIS_TYPE = 0
CLASSIFICATION_TYPE = U
NORAD_CAT_ID   = 13154
ELEMENT_SET_NO = 999
REV_AT_EPOCH   = 38181
BSTAR          = .19542E-3
MEAN_MOTION_DOT = .3237E-4
MEAN_MOTION_DDOT = 0

