ATLAS CENTAUR R/B       
1 06155U 72065B   26069.70699951  .00001538  00000+0  21265-3 0  9991
2 06155  35.0016 299.7926 0033416  17.4108 342.7732 14.77689947841414
SL-8 R/B                
1 08459U 75112B   26069.82471050  .00000319  00000+0  11335-3 0  9990
2 08459  74.0630  16.8239 0014414 109.6444 250.6267 14.38204508632036
SL-3 R/B                
1 10114U 77057B   26069.81966509  .00015923  00000+0  33319-3 0  9991
2 10114  97.5778 241.7899 0006180 280.5264  79.5288 15.45530140668506
SEASAT 1                
1 10967U 78064A   26069.81038785  .00000305  00000+0  12378-3 0  9992
2 10967 108.0106 127.8515 0002326 285.4764  74.6124 14.46161358506676
SL-14 R/B               
1 11267U 79011B   26069.58653505  .00000697  00000+0  66205-4 0  9999
2 11267  82.5208  95.7197 0017365  57.7831 302.5069 14.91909316528918
SL-8 R/B                
1 11574U 79089B   26069.50846008  .00000343  00000+0  11157-3 0  9992
2 11574  74.0667  89.5278 0017162 262.1209  97.7999 14.42351404436223
SL-14 R/B               
1 11672U 80005B   26069.73437571  .00000654  00000+0  63589-4 0  9999
2 11672  82.5142 306.2455 0016272 154.9385 205.2628 14.90931778476640
SL-8 R/B                
1 12139U 81003B   26069.59679006  .00021860  00000+0  55974-3 0  9992
2 12139  82.9387 289.1850 0262165 175.4930 184.8760 15.11013948314813
SL-3 R/B                
1 12465U 81046B   26069.82271732  .00014970  00000+0  34764-3 0  9999
2 12465  81.2299 288.3835 0019439  18.4665 341.7278 15.42029677438600
SL-3 R/B                
1 12904U 81103B   26069.82461455  .00006375  00000+0  28261-3 0  9999
2 12904  81.1585 212.1006 0012351 282.7697  77.2154 15.21391815973406
SL-3 R/B                
1 13068U 82013B   26069.83221027  .00004897  00000+0  21172-3 0  9993
2 13068  81.1761 159.4319 0022680 173.7105 186.4416 15.22031571404520
SL-3 R/B                
1 13154U 82039B   26069.84952222  .00003237  00000+0  19542-3 0  9991
2 13154  81.1582 214.6246 0029674 320.6886  39.2184 15.10089653381813
